[{"OBJECT_NAME":"STARLINK-31827","OBJECT_ID":"2024-088V","EPOCH":"2026-03-18T08:26:53.104128","MEAN_MOTION":15.302123,"ECCENTRICITY":8.714e-5,"INCLINATION":53.1567,"RA_OF_ASC_NODE":100.0064,"ARG_OF_PERICENTER":91.0267,"MEAN_ANOMALY":269.0834,"EPHEMERIS_TYPE":0,"CLASSIFICATION_TYPE":"U","NORAD_CAT_ID":59727,"ELEMENT_SET_NO":999,"REV_AT_EPOCH":10512,"BSTAR":-0.00033804315,"MEAN_MOTION_DOT":-0.00010361,"MEAN_MOTION_DDOT":0},{"OBJECT_NAME":"STARLINK-31472","OBJECT_ID":"2024-090A","EPOCH":"2026-03-18T20:45:52.536960","MEAN_MOTION":15.27579346,"ECCENTRICITY":0.00017313,"INCLINATION":43.003,"RA_OF_ASC_NODE":131.6554,"ARG_OF_PERICENTER":264.9199,"MEAN_ANOMALY":95.1455,"EPHEMERIS_TYPE":0,"CLASSIFICATION_TYPE":"U","NORAD_CAT_ID":59730,"ELEMENT_SET_NO":999,"REV_AT_EPOCH":10484,"BSTAR":9.445995e-6,"MEAN_MOTION_DOT":-2.0e-8,"MEAN_MOTION_DDOT":0},{"OBJECT_NAME":"STARLINK-31817","OBJECT_ID":"2024-090B","EPOCH":"2026-03-18T20:19:59.549664","MEAN_MOTION":15.27575952,"ECCENTRICITY":0.00015005,"INCLINATION":43.0025,"RA_OF_ASC_NODE":131.5264,"ARG_OF_PERICENTER":281.8937,"MEAN_ANOMALY":78.1746,"EPHEMERIS_TYPE":0,"CLASSIFICATION_TYPE":"U","NORAD_CAT_ID":59731,"ELEMENT_SET_NO":999,"REV_AT_EPOCH":10484,"BSTAR":-2.27326e-6,"MEAN_MOTION_DOT":-3.25e-6,"MEAN_MOTION_DDOT":0},{"OBJECT_NAME":"STARLINK-31833","OBJECT_ID":"2024-090D","EPOCH":"2026-03-18T13:15:27.995040","MEAN_MOTION":15.27551207,"ECCENTRICITY":0.0001149,"INCLINATION":43.0026,"RA_OF_ASC_NODE":133.6108,"ARG_OF_PERICENTER":277.1461,"MEAN_ANOMALY":82.926,"EPHEMERIS_TYPE":0,"CLASSIFICATION_TYPE":"U","NORAD_CAT_ID":59733,"ELEMENT_SET_NO":999,"REV_AT_EPOCH":10479,"BSTAR":0.00037327,"MEAN_MOTION_DOT":0.00010014,"MEAN_MOTION_DDOT":0},{"OBJECT_NAME":"STARLINK-31849","OBJECT_ID":"2024-090E","EPOCH":"2026-03-18T13:00:10.313856","MEAN_MOTION":15.27603677,"ECCENTRICITY":0.00020907,"INCLINATION":43.0034,"RA_OF_ASC_NODE":126.6103,"ARG_OF_PERICENTER":267.1291,"MEAN_ANOMALY":92.9321,"EPHEMERIS_TYPE":0,"CLASSIFICATION_TYPE":"U","NORAD_CAT_ID":59734,"ELEMENT_SET_NO":999,"REV_AT_EPOCH":10487,"BSTAR":-1.3063361e-5,"MEAN_MOTION_DOT":-6.22e-6,"MEAN_MOTION_DDOT":0},{"OBJECT_NAME":"STARLINK-31661","OBJECT_ID":"2024-090F","EPOCH":"2026-03-18T20:34:18.643872","MEAN_MOTION":15.27612088,"ECCENTRICITY":0.00013516,"INCLINATION":43.0028,"RA_OF_ASC_NODE":124.6756,"ARG_OF_PERICENTER":258.1756,"MEAN_ANOMALY":101.8944,"EPHEMERIS_TYPE":0,"CLASSIFICATION_TYPE":"U","NORAD_CAT_ID":59735,"ELEMENT_SET_NO":999,"REV_AT_EPOCH":10492,"BSTAR":-0.00023565126,"MEAN_MOTION_DOT":-6.747e-5,"MEAN_MOTION_DDOT":0},{"OBJECT_NAME":"STARLINK-31707","OBJECT_ID":"2024-090G","EPOCH":"2026-03-18T20:40:19.900416","MEAN_MOTION":15.27579756,"ECCENTRICITY":0.00015236,"INCLINATION":43.0047,"RA_OF_ASC_NODE":131.6289,"ARG_OF_PERICENTER":268.7756,"MEAN_ANOMALY":91.2921,"EPHEMERIS_TYPE":0,"CLASSIFICATION_TYPE":"U","NORAD_CAT_ID":59736,"ELEMENT_SET_NO":999,"REV_AT_EPOCH":10484,"BSTAR":3.3771268e-5,"MEAN_MOTION_DOT":6.67e-6,"MEAN_MOTION_DDOT":0},{"OBJECT_NAME":"STARLINK-31821","OBJECT_ID":"2024-090H","EPOCH":"2026-03-18T13:06:12.481056","MEAN_MOTION":15.2757565,"ECCENTRICITY":0.00015997,"INCLINATION":43.0054,"RA_OF_ASC_NODE":133.5607,"ARG_OF_PERICENTER":258.2399,"MEAN_ANOMALY":101.8273,"EPHEMERIS_TYPE":0,"CLASSIFICATION_TYPE":"U","NORAD_CAT_ID":59737,"ELEMENT_SET_NO":999,"REV_AT_EPOCH":10479,"BSTAR":1.3532873e-5,"MEAN_MOTION_DOT":1.1e-6,"MEAN_MOTION_DDOT":0},{"OBJECT_NAME":"STARLINK-31819","OBJECT_ID":"2024-090J","EPOCH":"2026-03-18T20:49:34.821696","MEAN_MOTION":15.27575464,"ECCENTRICITY":0.00022421,"INCLINATION":43.0068,"RA_OF_ASC_NODE":131.6735,"ARG_OF_PERICENTER":264.3292,"MEAN_ANOMALY":95.7304,"EPHEMERIS_TYPE":0,"CLASSIFICATION_TYPE":"U","NORAD_CAT_ID":59738,"ELEMENT_SET_NO":999,"REV_AT_EPOCH":10484,"BSTAR":2.3181194e-5,"MEAN_MOTION_DOT":3.75e-6,"MEAN_MOTION_DDOT":0},{"OBJECT_NAME":"STARLINK-31726","OBJECT_ID":"2024-090K","EPOCH":"2026-03-18T20:14:26.136384","MEAN_MOTION":15.27578274,"ECCENTRICITY":8.341e-5,"INCLINATION":43,"RA_OF_ASC_NODE":131.4949,"ARG_OF_PERICENTER":282.6436,"MEAN_ANOMALY":77.4322,"EPHEMERIS_TYPE":0,"CLASSIFICATION_TYPE":"U","NORAD_CAT_ID":59739,"ELEMENT_SET_NO":999,"REV_AT_EPOCH":10484,"BSTAR":-2.1810364e-5,"MEAN_MOTION_DOT":-8.62e-6,"MEAN_MOTION_DDOT":0},{"OBJECT_NAME":"STARLINK-31759","OBJECT_ID":"2024-090L","EPOCH":"2026-03-18T13:32:05.947872","MEAN_MOTION":15.27617296,"ECCENTRICITY":0.0001577,"INCLINATION":43,"RA_OF_ASC_NODE":133.6936,"ARG_OF_PERICENTER":264.3069,"MEAN_ANOMALY":95.7602,"EPHEMERIS_TYPE":0,"CLASSIFICATION_TYPE":"U","NORAD_CAT_ID":59740,"ELEMENT_SET_NO":999,"REV_AT_EPOCH":10479,"BSTAR":-0.00024542,"MEAN_MOTION_DOT":-7.017e-5,"MEAN_MOTION_DDOT":0},{"OBJECT_NAME":"STARLINK-31818","OBJECT_ID":"2024-090M","EPOCH":"2026-03-18T13:21:00.494208","MEAN_MOTION":15.27581693,"ECCENTRICITY":0.0001412,"INCLINATION":43.0013,"RA_OF_ASC_NODE":133.6373,"ARG_OF_PERICENTER":267.6977,"MEAN_ANOMALY":92.3713,"EPHEMERIS_TYPE":0,"CLASSIFICATION_TYPE":"U","NORAD_CAT_ID":59741,"ELEMENT_SET_NO":999,"REV_AT_EPOCH":10479,"BSTAR":2.4111e-5,"MEAN_MOTION_DOT":4.01e-6,"MEAN_MOTION_DDOT":0},{"OBJECT_NAME":"STARLINK-31816","OBJECT_ID":"2024-090N","EPOCH":"2026-03-18T19:57:58.901472","MEAN_MOTION":15.27579307,"ECCENTRICITY":0.00013997,"INCLINATION":43.0009,"RA_OF_ASC_NODE":132.2416,"ARG_OF_PERICENTER":272.9269,"MEAN_ANOMALY":87.1423,"EPHEMERIS_TYPE":0,"CLASSIFICATION_TYPE":"U","NORAD_CAT_ID":59742,"ELEMENT_SET_NO":999,"REV_AT_EPOCH":10481,"BSTAR":-8.20298e-7,"MEAN_MOTION_DOT":-2.85e-6,"MEAN_MOTION_DDOT":0},{"OBJECT_NAME":"STARLINK-31809","OBJECT_ID":"2024-090P","EPOCH":"2026-03-18T11:14:56.232096","MEAN_MOTION":15.27606081,"ECCENTRICITY":0.00014449,"INCLINATION":43.0019,"RA_OF_ASC_NODE":126.9191,"ARG_OF_PERICENTER":259.4283,"MEAN_ANOMALY":100.6406,"EPHEMERIS_TYPE":0,"CLASSIFICATION_TYPE":"U","NORAD_CAT_ID":59743,"ELEMENT_SET_NO":999,"REV_AT_EPOCH":10486,"BSTAR":-0.00020285529,"MEAN_MOTION_DOT":-5.844e-5,"MEAN_MOTION_DDOT":0},{"OBJECT_NAME":"STARLINK-31779","OBJECT_ID":"2024-090Q","EPOCH":"2026-03-18T20:25:30.074592","MEAN_MOTION":15.27584735,"ECCENTRICITY":0.0001257,"INCLINATION":43.002,"RA_OF_ASC_NODE":131.5545,"ARG_OF_PERICENTER":280.449,"MEAN_ANOMALY":79.622,"EPHEMERIS_TYPE":0,"CLASSIFICATION_TYPE":"U","NORAD_CAT_ID":59744,"ELEMENT_SET_NO":999,"REV_AT_EPOCH":10484,"BSTAR":0.00022997343,"MEAN_MOTION_DOT":6.072e-5,"MEAN_MOTION_DDOT":0},{"OBJECT_NAME":"STARLINK-31805","OBJECT_ID":"2024-090R","EPOCH":"2026-03-18T20:08:52.846656","MEAN_MOTION":15.27572969,"ECCENTRICITY":0.00012557,"INCLINATION":43.0017,"RA_OF_ASC_NODE":131.4623,"ARG_OF_PERICENTER":281.5412,"MEAN_ANOMALY":78.5299,"EPHEMERIS_TYPE":0,"CLASSIFICATION_TYPE":"U","NORAD_CAT_ID":59745,"ELEMENT_SET_NO":999,"REV_AT_EPOCH":10484,"BSTAR":1.581267e-5,"MEAN_MOTION_DOT":1.73e-6,"MEAN_MOTION_DDOT":0},{"OBJECT_NAME":"STARLINK-31681","OBJECT_ID":"2024-090S","EPOCH":"2026-03-18T12:54:38.606976","MEAN_MOTION":15.2758006,"ECCENTRICITY":0.00013159,"INCLINATION":43.0009,"RA_OF_ASC_NODE":126.5791,"ARG_OF_PERICENTER":281.0407,"MEAN_ANOMALY":79.0297,"EPHEMERIS_TYPE":0,"CLASSIFICATION_TYPE":"U","NORAD_CAT_ID":59746,"ELEMENT_SET_NO":999,"REV_AT_EPOCH":10487,"BSTAR":5.9643094e-5,"MEAN_MOTION_DOT":1.379e-5,"MEAN_MOTION_DDOT":0},{"OBJECT_NAME":"STARLINK-31636","OBJECT_ID":"2024-090T","EPOCH":"2026-03-18T23:37:32.748384","MEAN_MOTION":15.27566947,"ECCENTRICITY":9.288e-5,"INCLINATION":43.0005,"RA_OF_ASC_NODE":130.8342,"ARG_OF_PERICENTER":279.1625,"MEAN_ANOMALY":80.9122,"EPHEMERIS_TYPE":0,"CLASSIFICATION_TYPE":"U","NORAD_CAT_ID":59747,"ELEMENT_SET_NO":999,"REV_AT_EPOCH":10486,"BSTAR":-5.745867e-5,"MEAN_MOTION_DOT":-1.842e-5,"MEAN_MOTION_DDOT":0},{"OBJECT_NAME":"STARLINK-31640","OBJECT_ID":"2024-090U","EPOCH":"2026-03-18T20:53:16.130976","MEAN_MOTION":15.27595029,"ECCENTRICITY":0.00022565,"INCLINATION":43.0075,"RA_OF_ASC_NODE":131.6897,"ARG_OF_PERICENTER":264.9947,"MEAN_ANOMALY":95.0647,"EPHEMERIS_TYPE":0,"CLASSIFICATION_TYPE":"U","NORAD_CAT_ID":59748,"ELEMENT_SET_NO":999,"REV_AT_EPOCH":10484,"BSTAR":-0.00010774365,"MEAN_MOTION_DOT":-3.228e-5,"MEAN_MOTION_DDOT":0},{"OBJECT_NAME":"STARLINK-31677","OBJECT_ID":"2024-090V","EPOCH":"2026-03-18T11:52:23.897856","MEAN_MOTION":15.27580691,"ECCENTRICITY":0.00013446,"INCLINATION":42.9997,"RA_OF_ASC_NODE":134.0319,"ARG_OF_PERICENTER":271.1649,"MEAN_ANOMALY":88.9049,"EPHEMERIS_TYPE":0,"CLASSIFICATION_TYPE":"U","NORAD_CAT_ID":59749,"ELEMENT_SET_NO":999,"REV_AT_EPOCH":10477,"BSTAR":5.7798992e-5,"MEAN_MOTION_DOT":1.329e-5,"MEAN_MOTION_DDOT":0},{"OBJECT_NAME":"STARLINK-31783","OBJECT_ID":"2024-090W","EPOCH":"2026-03-18T10:29:21.076800","MEAN_MOTION":15.2757731,"ECCENTRICITY":0.00010674,"INCLINATION":43.0002,"RA_OF_ASC_NODE":134.4568,"ARG_OF_PERICENTER":269.018,"MEAN_ANOMALY":91.055,"EPHEMERIS_TYPE":0,"CLASSIFICATION_TYPE":"U","NORAD_CAT_ID":59750,"ELEMENT_SET_NO":999,"REV_AT_EPOCH":10476,"BSTAR":3.5266053e-5,"MEAN_MOTION_DOT":7.08e-6,"MEAN_MOTION_DDOT":0},{"OBJECT_NAME":"STARLINK-31808","OBJECT_ID":"2024-090X","EPOCH":"2026-03-18T13:46:42.042144","MEAN_MOTION":15.275824,"ECCENTRICITY":0.0001042,"INCLINATION":42.9995,"RA_OF_ASC_NODE":132.9078,"ARG_OF_PERICENTER":292.9749,"MEAN_ANOMALY":67.0993,"EPHEMERIS_TYPE":0,"CLASSIFICATION_TYPE":"U","NORAD_CAT_ID":59751,"ELEMENT_SET_NO":999,"REV_AT_EPOCH":10479,"BSTAR":1.1136e-5,"MEAN_MOTION_DOT":4.5e-7,"MEAN_MOTION_DDOT":0},{"OBJECT_NAME":"STARLINK-31822","OBJECT_ID":"2024-090Y","EPOCH":"2026-03-18T20:34:46.349760","MEAN_MOTION":15.27581389,"ECCENTRICITY":0.00024576,"INCLINATION":43.0077,"RA_OF_ASC_NODE":131.5972,"ARG_OF_PERICENTER":267.6948,"MEAN_ANOMALY":92.3622,"EPHEMERIS_TYPE":0,"CLASSIFICATION_TYPE":"U","NORAD_CAT_ID":59752,"ELEMENT_SET_NO":999,"REV_AT_EPOCH":10483,"BSTAR":-1.443153e-6,"MEAN_MOTION_DOT":-3.02e-6,"MEAN_MOTION_DDOT":0}]
